STARLINK-32517          
1 61980U 24210X   26068.35006430  .00033061  00000+0  12058-2 0  9996
2 61980  42.9999 182.1168 0001233 267.5380  92.5331 15.27572420 74778
TEVEL2-9                
1 63237U 25052AD  26068.70229538  .00018694  00000+0  67240-3 0  9992
2 63237  97.4057 324.3929 0007990 124.2475 235.9522 15.28633834 54816
